start=new Date('2021-10-28T00:00:00.000Z').valueOf();
sats=[{"NORAD_CAT_ID":"48589","CENTER_NAME":"EARTH","RCS_SIZE":"LARGE","RA_OF_ASC_NODE":"89.8427","COUNTRY_CODE":"US","ARG_OF_PERICENTER":"75.4481","MEAN_ELEMENT_THEORY":"SGP4","REF_FRAME":"TEME","LAUNCH_DATE":"2021-05-15","MEAN_ANOMALY":"284.6747","CLASSIFICATION_TYPE":"U","DECAY_DATE":null,"SITE":"AFETR","MEAN_MOTION_DDOT":"0.0000000000000","APOAPSIS":"548.720","TLE_LINE1":"1 48589U 21041AN  21300.13766494 -.00000305  00000-0 -15319-5 0  9992","REV_AT_EPOCH":"2486","PERIAPSIS":"545.737","EPOCH":"2021-10-27T03:18:14.250816","OBJECT_TYPE":"PAYLOAD","BSTAR":"-0.00000153190000","GP_ID":"188274565","FILE":"3187107","EPHEMERIS_TYPE":"0","TIME_SYSTEM":"UTC","PERIOD":"95.592","TLE_LINE2":"2 48589  53.0545  89.8427 0002154  75.4481 284.6747 15.06395145 24864","SEMIMAJOR_AXIS":"6925.363","OBJECT_ID":"2021-041AN","ECCENTRICITY":"0.00021540","OBJECT_NAME":"STARLINK-2245","MEAN_MOTION_DOT":"-0.00000305","ELEMENT_SET_NO":"999","MEAN_MOTION":"15.06395145","INCLINATION":"53.0545"},{"LAUNCH_DATE":"2021-05-15","REF_FRAME":"TEME","MEAN_ELEMENT_THEORY":"SGP4","ARG_OF_PERICENTER":"85.8965","RA_OF_ASC_NODE":"99.7223","COUNTRY_CODE":"US","RCS_SIZE":"LARGE","NORAD_CAT_ID":"48590","CENTER_NAME":"EARTH","TLE_LINE1":"1 48590U 21041AP  21300.16254611  .00001410  00000-0  11354-3 0  9999","APOAPSIS":"548.492","MEAN_MOTION_DDOT":"0.0000000000000","SITE":"AFETR","CLASSIFICATION_TYPE":"U","DECAY_DATE":null,"MEAN_ANOMALY":"274.2232","FILE":"3187107","GP_ID":"188274118","BSTAR":"0.00011354000000","EPOCH":"2021-10-27T03:54:03.983904","OBJECT_TYPE":"PAYLOAD","REV_AT_EPOCH":"2472","PERIAPSIS":"545.981","INCLINATION":"53.0552","MEAN_MOTION":"15.06392585","ELEMENT_SET_NO":"999","MEAN_MOTION_DOT":"0.00001410","ECCENTRICITY":"0.00018130","OBJECT_NAME":"STARLINK-2246","OBJECT_ID":"2021-041AP","SEMIMAJOR_AXIS":"6925.371","TLE_LINE2":"2 48590  53.0552  99.7223 0001813  85.8965 274.2232 15.06392585 24725","PERIOD":"95.593","EPHEMERIS_TYPE":"0","TIME_SYSTEM":"UTC"},{"APOAPSIS":"548.685","TLE_LINE1":"1 48591U 21041AQ  21300.13029430 -.00000460  00000-0 -11963-4 0  9999","MEAN_MOTION_DDOT":"0.0000000000000","SITE":"AFETR","DECAY_DATE":null,"CLASSIFICATION_TYPE":"U","MEAN_ANOMALY":"275.7963","MEAN_ELEMENT_THEORY":"SGP4","LAUNCH_DATE":"2021-05-15","REF_FRAME":"TEME","ARG_OF_PERICENTER":"84.3266","RCS_SIZE":"LARGE","COUNTRY_CODE":"US","RA_OF_ASC_NODE":"89.8771","NORAD_CAT_ID":"48591","CENTER_NAME":"EARTH","INCLINATION":"53.0554","ECCENTRICITY":"0.00021070","OBJECT_NAME":"STARLINK-2248","MEAN_MOTION":"15.06395941","ELEMENT_SET_NO":"999","MEAN_MOTION_DOT":"-0.00000460","TLE_LINE2":"2 48591  53.0554  89.8771 0002107  84.3266 275.7963 15.06395941 25762","PERIOD":"95.592","OBJECT_ID":"2021-041AQ","SEMIMAJOR_AXIS":"6925.361","TIME_SYSTEM":"UTC","EPHEMERIS_TYPE":"0","GP_ID":"188274007","FILE":"3187107","PERIAPSIS":"545.767","REV_AT_EPOCH":"2576","BSTAR":"-0.00001196300000","OBJECT_TYPE":"PAYLOAD","EPOCH":"2021-10-27T03:07:37.427520"},{"REV_AT_EPOCH":"2466","PERIAPSIS":"546.149","BSTAR":"0.00008869000000","EPOCH":"2021-10-26T17:33:05.607360","OBJECT_TYPE":"PAYLOAD","GP_ID":"188274230","FILE":"3187107","TLE_LINE2":"2 48592  53.0555 101.6653 0001569  81.8884 278.2283 15.06392876 24660","PERIOD":"95.593","OBJECT_ID":"2021-041AR","SEMIMAJOR_AXIS":"6925.370","EPHEMERIS_TYPE":"0","TIME_SYSTEM":"UTC","INCLINATION":"53.0555","OBJECT_NAME":"STARLINK-2249","ECCENTRICITY":"0.00015690","MEAN_MOTION":"15.06392876","ELEMENT_SET_NO":"999","MEAN_MOTION_DOT":"0.00001040","RCS_SIZE":"MEDIUM","RA_OF_ASC_NODE":"101.6653","COUNTRY_CODE":"US","NORAD_CAT_ID":"48592","CENTER_NAME":"EARTH","MEAN_ELEMENT_THEORY":"SGP4","LAUNCH_DATE":"2021-05-15","REF_FRAME":"TEME","ARG_OF_PERICENTER":"81.8884","MEAN_MOTION_DDOT":"0.0000000000000","SITE":"AFETR","DECAY_DATE":null,"CLASSIFICATION_TYPE":"U","MEAN_ANOMALY":"278.2283","APOAPSIS":"548.322","TLE_LINE1":"1 48592U 21041AR  21299.73131490  .00001040  00000-0  88690-4 0  9997"},{"MEAN_MOTION_DDOT":"0.0000000000000","SITE":"AFETR","CLASSIFICATION_TYPE":"U","DECAY_DATE":null,"MEAN_ANOMALY":"275.6910","TLE_LINE1":"1 48593U 21041AS  21300.80021309 -.00000414  00000-0 -88603-5 0  9997","APOAPSIS":"548.580","COUNTRY_CODE":"US","RA_OF_ASC_NODE":"96.8607","RCS_SIZE":"LARGE","NORAD_CAT_ID":"48593","CENTER_NAME":"EARTH","LAUNCH_DATE":"2021-05-15","REF_FRAME":"TEME","MEAN_ELEMENT_THEORY":"SGP4","ARG_OF_PERICENTER":"84.4303","OBJECT_ID":"2021-041AS","SEMIMAJOR_AXIS":"6925.350","TLE_LINE2":"2 48593  53.0553  96.8607 0001972  84.4303 275.6910 15.06399657 25120","PERIOD":"95.592","TIME_SYSTEM":"UTC","EPHEMERIS_TYPE":"0","INCLINATION":"53.0553","MEAN_MOTION":"15.06399657","MEAN_MOTION_DOT":"-0.00000414","ELEMENT_SET_NO":"999","ECCENTRICITY":"0.00019720","OBJECT_NAME":"STARLINK-2250","BSTAR":"-0.00000886030000","OBJECT_TYPE":"PAYLOAD","EPOCH":"2021-10-27T19:12:18.410976","REV_AT_EPOCH":"2512","PERIAPSIS":"545.849","FILE":"3187659","GP_ID":"188285841"},{"SITE":"AFETR","MEAN_MOTION_DDOT":"0.0000000000000","MEAN_ANOMALY":"165.3191","CLASSIFICATION_TYPE":"U","DECAY_DATE":null,"TLE_LINE1":"1 48594U 21041AT  21300.66667824  .00004871  00000-0  31879-3 0  9990","APOAPSIS":"538.959","RA_OF_ASC_NODE":"66.7808","COUNTRY_CODE":"US","RCS_SIZE":"LARGE","NORAD_CAT_ID":"48594","CENTER_NAME":"EARTH","REF_FRAME":"TEME","LAUNCH_DATE":"2021-05-15","MEAN_ELEMENT_THEORY":"SGP4","ARG_OF_PERICENTER":"69.0170","SEMIMAJOR_AXIS":"6916.071","OBJECT_ID":"2021-041AT","PERIOD":"95.400","TLE_LINE2":"2 48594  53.0541  66.7808 0001479  69.0170 165.3191 15.09432281  3575","EPHEMERIS_TYPE":"0","TIME_SYSTEM":"UTC","INCLINATION":"53.0541","ELEMENT_SET_NO":"999","MEAN_MOTION_DOT":"0.00004871","MEAN_MOTION":"15.09432281","OBJECT_NAME":"STARLINK-2251","ECCENTRICITY":"0.00014790","OBJECT_TYPE":"PAYLOAD","EPOCH":"2021-10-27T16:00:00.999936","BSTAR":"0.00031879000000","PERIAPSIS":"536.913","REV_AT_EPOCH":"357","FILE":"3187107","GP_ID":"188273784"},{"GP_ID":"188274342","FILE":"3187107","REV_AT_EPOCH":"2600","PERIAPSIS":"546.204","EPOCH":"2021-10-27T04:25:55.420608","OBJECT_TYPE":"PAYLOAD","BSTAR":"0.00011197000000","ECCENTRICITY":"0.00014440","OBJECT_NAME":"STARLINK-2252","ELEMENT_SET_NO":"999","MEAN_MOTION_DOT":"0.00001387","MEAN_MOTION":"15.06402959","INCLINATION":"53.0554","TIME_SYSTEM":"UTC","EPHEMERIS_TYPE":"0","PERIOD":"95.592","TLE_LINE2":"2 48595  53.0554  99.6258 0001444  88.4400 271.6754 15.06402959 26002","SEMIMAJOR_AXIS":"6925.339","OBJECT_ID":"2021-041AU","ARG_OF_PERICENTER":"88.4400","MEAN_ELEMENT_THEORY":"SGP4","REF_FRAME":"TEME","LAUNCH_DATE":"2021-05-15","NORAD_CAT_ID":"48595","CENTER_NAME":"EARTH","RCS_SIZE":"LARGE","COUNTRY_CODE":"US","RA_OF_ASC_NODE":"99.6258","APOAPSIS":"548.205","TLE_LINE1":"1 48595U 21041AU  21300.18466922  .00001387  00000-0  11197-3 0  9994","MEAN_ANOMALY":"271.6754","DECAY_DATE":null,"CLASSIFICATION_TYPE":"U","SITE":"AFETR","MEAN_MOTION_DDOT":"0.0000000000000"},{"GP_ID":"188273896","FILE":"3187107","REV_AT_EPOCH":"2518","PERIAPSIS":"546.186","EPOCH":"2021-10-27T03:22:12.878112","OBJECT_TYPE":"PAYLOAD","BSTAR":"-0.00002465300000","INCLINATION":"53.0552","OBJECT_NAME":"STARLINK-2253","ECCENTRICITY":"0.00015050","ELEMENT_SET_NO":"999","MEAN_MOTION_DOT":"-0.00000649","MEAN_MOTION":"15.06395094","PERIOD":"95.592","TLE_LINE2":"2 48596  53.0552  99.8228 0001505  85.3995 274.7166 15.06395094 25183","SEMIMAJOR_AXIS":"6925.364","OBJECT_ID":"2021-041AV","TIME_SYSTEM":"UTC","EPHEMERIS_TYPE":"0","MEAN_ELEMENT_THEORY":"SGP4","REF_FRAME":"TEME","LAUNCH_DATE":"2021-05-15","ARG_OF_PERICENTER":"85.3995","RCS_SIZE":"LARGE","RA_OF_ASC_NODE":"99.8228","COUNTRY_CODE":"US","NORAD_CAT_ID":"48596","CENTER_NAME":"EARTH","APOAPSIS":"548.271","TLE_LINE1":"1 48596U 21041AV  21300.14042683 -.00000649  00000-0 -24653-4 0  9999","SITE":"AFETR","MEAN_MOTION_DDOT":"0.0000000000000","MEAN_ANOMALY":"274.7166","CLASSIFICATION_TYPE":"U","DECAY_DATE":null},{"RCS_SIZE":"LARGE","COUNTRY_CODE":"US","RA_OF_ASC_NODE":"96.8168","NORAD_CAT_ID":"48597","CENTER_NAME":"EARTH","MEAN_ELEMENT_THEORY":"SGP4","LAUNCH_DATE":"2021-05-15","REF_FRAME":"TEME","ARG_OF_PERICENTER":"86.5920","MEAN_MOTION_DDOT":"0.0000000000000","SITE":"AFETR","CLASSIFICATION_TYPE":"U","DECAY_DATE":null,"MEAN_ANOMALY":"273.5280","APOAPSIS":"548.487","TLE_LINE1":"1 48597U 21041AW  21300.81127155  .00000129  00000-0  27552-4 0  9994","REV_AT_EPOCH":"2609","PERIAPSIS":"545.930","BSTAR":"0.00002755200000","EPOCH":"2021-10-27T19:28:13.861920","OBJECT_TYPE":"PAYLOAD","GP_ID":"188285881","FILE":"3187662","TLE_LINE2":"2 48597  53.0557  96.8168 0001846  86.5920 273.5280 15.06401608 26092","PERIOD":"95.592","OBJECT_ID":"2021-041AW","SEMIMAJOR_AXIS":"6925.344","EPHEMERIS_TYPE":"0","TIME_SYSTEM":"UTC","INCLINATION":"53.0557","ECCENTRICITY":"0.00018460","OBJECT_NAME":"STARLINK-2255","MEAN_MOTION":"15.06401608","MEAN_MOTION_DOT":"0.00000129","ELEMENT_SET_NO":"999"},{"TLE_LINE1":"1 48598U 21041AX  21300.35054386  .00001480  00000-0  11822-3 0  9992","APOAPSIS":"548.156","SITE":"AFETR","MEAN_MOTION_DDOT":"0.0000000000000","MEAN_ANOMALY":"276.6649","CLASSIFICATION_TYPE":"U","DECAY_DATE":null,"REF_FRAME":"TEME","LAUNCH_DATE":"2021-05-15","MEAN_ELEMENT_THEORY":"SGP4","ARG_OF_PERICENTER":"83.4498","COUNTRY_CODE":"US","RA_OF_ASC_NODE":"98.8871","RCS_SIZE":"LARGE","NORAD_CAT_ID":"48598","CENTER_NAME":"EARTH","INCLINATION":"53.0559","ELEMENT_SET_NO":"999","MEAN_MOTION_DOT":"0.00001480","MEAN_MOTION":"15.06405773","ECCENTRICITY":"0.00013860","OBJECT_NAME":"STARLINK-2256","SEMIMAJOR_AXIS":"6925.331","OBJECT_ID":"2021-041AX","PERIOD":"95.592","TLE_LINE2":"2 48598  53.0559  98.8871 0001386  83.4498 276.6649 15.06405773 25216","TIME_SYSTEM":"UTC","EPHEMERIS_TYPE":"0","FILE":"3187107","GP_ID":"188274119","OBJECT_TYPE":"PAYLOAD","EPOCH":"2021-10-27T08:24:46.989504","BSTAR":"0.00011822000000","REV_AT_EPOCH":"2521","PERIAPSIS":"546.236"}];
